IRIDIUM 921             
1 24873U 97034E   24254.22595459  .00083973  00000+0  16311-2 0  9998
2 24873  86.3745 245.7667 0002257 136.8674 223.2761 15.47321660488577
IRIDIUM 26              
1 24903U 97043A   24253.89537974  .00002208  00000+0  74518-3 0  9998
2 24903  86.3951 228.1980 0002206  86.2822 273.8627 14.36567375416496
IRIDIUM 22              
1 24907U 97043E   24253.94708097  .00001905  00000+0  65676-3 0  9992
2 24907  86.3945 231.4795 0002346  89.3661 270.7804 14.35443879416566
DUMMY MASS 1            
1 24925U 97048A   24253.95541852  .00001568  00000+0  17456-3 0  9990
2 24925  86.3288 264.8039 0008958  67.9807 292.2368 14.86403784463491
DUMMY MASS 2            
1 24926U 97048B   24253.53453734  .00001528  00000+0  17098-3 0  9994
2 24926  86.3287 266.5576 0009927  77.1150 283.1183 14.86159230463215
IRIDIUM 29              
1 24944U 97051A   24253.78398175  .00001740  00000+0  59386-3 0  9994
2 24944  86.3895 261.4200 0002488  90.7724 269.3758 14.35889159413023
IRIDIUM 33              
1 24946U 97051C   24254.10043612  .00001127  00000+0  39322-3 0  9993
2 24946  86.3810 260.5337 0005702 273.5014  86.5530 14.34495649412592
IRIDIUM 28              
1 24948U 97051E   24253.94063137  .00001687  00000+0  56467-3 0  9990
2 24948  86.3902 259.0271 0001824  87.3432 272.7974 14.36844631413595
